QIANFAN-97              
1 66039U 25233G   26009.66021274 -.02108826  00000+0 -35357+1 0  9995
2 66039  88.9930  59.2531 0013225 328.6957  31.3405 13.50197480 11782
QIANFAN-98              
1 66040U 25233H   26009.64843785  .00000130  00000+0  10832-3 0  9993
2 66040  88.9926  59.0863 0013209 319.7669  40.2522 13.82585676 11870
QIANFAN-99              
1 66041U 25233J   26009.60496901 -.02145397  00000+0 -34126+1 0  9992
2 66041  88.9926  59.2638 0015180 341.1019  18.9569 13.53617379 11777
QIANFAN-100             
1 66042U 25233K   26009.67012313 -.02144541  00000+0 -34385+1 0  9998
2 66042  88.9939  59.1655 0014121 346.4942  13.5830 13.53114571 11832
QIANFAN-101             
1 66043U 25233L   26009.65103161  .00000213  00000+0  82274-4 0  9996
2 66043  88.9933  58.8113 0012833 309.1042  50.9010 14.26692475 12029
QIANFAN-102             
1 66044U 25233M   26009.63196954  .00000102  00000+0  10776-3 0  9991
2 66044  88.9932  59.2128 0013428 322.7481  37.2746 13.66803999 11806
QIANFAN-103             
1 66045U 25233N   26009.61358088 -.02112706  00000+0 -35639+1 0  9998
2 66045  88.9934  59.2648 0012609 323.3232  36.7054 13.49816860 11771
QIANFAN-104             
1 66046U 25233P   26009.66292535  .00000116  00000+0  11515-3 0  9995
2 66046  88.9936  59.2011 0012824 326.3011  33.7335 13.71549491 11817
